NORAD_CAT_ID,OBJECT_NAME,OBJECT_TYPE,EPOCH,MEAN_MOTION,ECCENTRICITY,INCLINATION,RA_OF_ASC_NODE,ARG_OF_PERICENTER,MEAN_ANOMALY,BSTAR,MEAN_MOTION_DOT,MEAN_MOTION_DDOT,TLE_LINE0,TLE_LINE1,TLE_LINE2,SEMIMAJOR_AXIS,PERIOD,APOGEE,PERIGEE,DECAYED
53797.0,STARLINK-4723,PAYLOAD,2024-08-06 18:24:03,15.08831437,0.0001268,53.2193,357.0634,94.5777,265.536,3.0708e-05,2.01e-06,0.0,0 STARLINK-4723,1 53797U 22111AA  24219.76671046  .00000201  00000-0  30708-4 0  9998,2 53797  53.2193 357.0634 0001268  94.5777 265.5360 15.08831437105340,6917.907,95.438,540.649,538.894,0.0
53797.0,STARLINK-4723,PAYLOAD,2024-08-07 08:42:31,15.08839626,0.0001155,53.2186,354.3825,100.5394,259.5728,0.00010482,1.381e-05,0.0,0 STARLINK-4723,1 53797U 22111AA  24220.36286010  .00001381  00000-0  10482-3 0  9995,2 53797  53.2186 354.3825 0001155 100.5394 259.5728 15.08839626105431,6917.882,95.438,540.546,538.948,0.0
53797.0,STARLINK-4723,PAYLOAD,2024-08-07 16:39:26,15.08842018,0.0001144,53.2191,352.8969,77.9558,282.1563,0.00015675,2.208e-05,0.0,0 STARLINK-4723,1 53797U 22111AA  24220.69405714  .00002208  00000-0  15675-3 0  9993,2 53797  53.2191 352.8969 0001144  77.9558 282.1563 15.08842018106277,6917.874,95.437,540.531,538.948,0.0
53797.0,STARLINK-4723,PAYLOAD,2024-08-08 13:19:28,15.08838438,0.0001586,53.2184,349.0379,70.8662,289.2502,2.8863e-05,1.71e-06,0.0,0 STARLINK-4723,1 53797U 22111AA  24221.55518857  .00000171  00000-0  28863-4 0  9993,2 53797  53.2184 349.0379 0001586  70.8662 289.2502 15.08838438106407,6917.885,95.438,540.847,538.653,0.0
53797.0,STARLINK-4723,PAYLOAD,2024-08-08 14:54:51,15.08839181,0.0001604,53.2179,348.741,75.2999,284.817,4.5106e-05,4.3e-06,0.0,0 STARLINK-4723,1 53797U 22111AA  24221.62142750  .00000430  00000-0  45106-4 0  9993,2 53797  53.2179 348.7410 0001604  75.2999 284.8170 15.08839181105627,6917.883,95.438,540.858,538.638,0.0
53797.0,STARLINK-4723,PAYLOAD,2024-08-09 14:45:38,15.08838429,0.0001352,53.2167,344.2768,88.194,271.9207,8.2632e-06,-1.56e-06,0.0,0 STARLINK-4723,1 53797U 22111AA  24222.61502464 -.00000156  00000-0  82632-5 0  9997,2 53797  53.2167 344.2768 0001352  88.1940 271.9207 15.08838429106566,6917.885,95.438,540.685,538.815,0.0
53797.0,STARLINK-4723,PAYLOAD,2024-08-10 13:01:02,15.08842449,0.000148,53.2182,340.1113,98.5712,261.5448,-5.2698e-05,-1.127e-05,0.0,0 STARLINK-4723,1 53797U 22111AA  24223.54238579 -.00001127  00000-0 -52698-4 0  9991,2 53797  53.2182 340.1113 0001480  98.5712 261.5448 15.08842449105913,6917.873,95.437,540.762,538.714,0.0
53797.0,STARLINK-4723,PAYLOAD,2024-08-10 14:36:24,15.08852459,0.0001261,53.2187,339.8164,86.1437,273.97,7.0388e-05,8.33e-06,0.0,0 STARLINK-4723,1 53797U 22111AA  24223.60861714  .00000833  00000-0  70388-4 0  9998,2 53797  53.2187 339.8164 0001261  86.1437 273.9700 15.08852459106712,6917.842,95.437,540.58,538.835,0.0
53797.0,STARLINK-4723,PAYLOAD,2024-08-11 08:05:38,15.08843626,0.0001272,53.2189,336.5458,89.9394,270.1744,0.00013157,1.807e-05,0.0,0 STARLINK-4723,1 53797U 22111AA  24224.33725494  .00001807  00000-0  13157-3 0  9995,2 53797  53.2189 336.5458 0001272  89.9394 270.1744 15.08843626106037,6917.869,95.437,540.614,538.854,0.0
53797.0,STARLINK-4723,PAYLOAD,2024-08-11 14:27:11,15.08843853,0.0001241,53.219,335.3564,86.6572,273.4562,0.00011795,1.59e-05,0.0,0 STARLINK-4723,1 53797U 22111AA  24224.60221487  .00001590  00000-0  11795-3 0  9993,2 53797  53.2190 335.3564 0001241  86.6572 273.4562 15.08843853106869,6917.869,95.437,540.592,538.875,0.0
53797.0,STARLINK-4723,PAYLOAD,2024-08-12 14:17:56,15.08872712,8.66e-05,53.2189,330.8944,75.2486,284.8602,0.00013041,1.79e-05,0.0,0 STARLINK-4723,1 53797U 22111AA  24225.59579026  .00001790  00000-0  13041-3 0  9995,2 53797  53.2189 330.8944 0000866  75.2486 284.8602 15.08872712107014,6917.78,95.435,540.244,539.046,0.0
53797.0,STARLINK-4723,PAYLOAD,2024-08-12 15:53:19,15.08873101,0.0001221,53.2189,330.5978,87.1651,272.9481,0.00013787,1.909e-05,0.0,0 STARLINK-4723,1 53797U 22111AA  24225.66202865  .00001909  00000-0  13787-3 0  9996,2 53797  53.2189 330.5978 0001221  87.1651 272.9481 15.08873101106239,6917.779,95.435,540.489,538.8,0.0
53797.0,STARLINK-4723,PAYLOAD,2024-08-13 06:11:48,15.0884873,0.0001732,53.2173,327.922,89.1855,270.9336,-8.5707e-06,-4.25e-06,0.0,0 STARLINK-4723,1 53797U 22111AA  24226.25820286 -.00000425  00000-0 -85707-5 0  9992,2 53797  53.2173 327.9220 0001732  89.1855 270.9336 15.08848730106324,6917.854,95.437,540.917,538.521,0.0
53797.0,STARLINK-4723,PAYLOAD,2024-08-13 23:41:04,15.08835183,2.38e-05,53.22,324.6479,239.7727,120.3242,-0.00013982,-2.512e-05,0.0,0 STARLINK-4723,1 53797U 22111AA  24226.98685458 -.00002512  00000-0 -13982-3 0  9995,2 53797  53.2200 324.6479 0000238 239.7727 120.3242 15.08835183106430,6917.895,95.438,539.925,539.595,0.0
53797.0,STARLINK-4723,PAYLOAD,2024-08-14 13:59:33,15.08841594,0.0001359,53.2188,321.9742,87.3768,272.738,-0.00018781,-3.276e-05,0.0,0 STARLINK-4723,1 53797U 22111AA  24227.58302102 -.00003276  00000-0 -18781-3 0  9994,2 53797  53.2188 321.9742 0001359  87.3768 272.7380 15.08841594107311,6917.876,95.437,540.681,538.8,0.0
53797.0,STARLINK-4723,PAYLOAD,2024-08-14 18:45:42,15.08841129,0.0001652,53.2188,321.08,87.8595,272.2587,-0.00019316,-3.361e-05,0.0,0 STARLINK-4723,1 53797U 22111AA  24227.78174201 -.00003361  00000-0 -19316-3 0  9993,2 53797  53.2188 321.0800 0001652  87.8595 272.2587 15.08841129107347,6917.877,95.437,540.885,538.599,0.0
53797.0,STARLINK-4723,PAYLOAD,2024-08-14 23:31:51,15.08856903,0.0001443,53.2183,320.1887,91.5754,268.5403,-0.00047874,-7.903e-05,0.0,0 STARLINK-4723,1 53797U 22111AA  24227.98046012 -.00007903  00000-0 -47874-3 0  9999,2 53797  53.2183 320.1887 0001443  91.5754 268.5403 15.08856903106580,6917.829,95.436,540.692,538.695,0.0
53797.0,STARLINK-4723,PAYLOAD,2024-08-15 13:50:22,15.08765146,0.0001703,53.2186,317.5123,98.8416,261.2769,0.00082132,0.00012781,0.0,0 STARLINK-4723,1 53797U 22111AA  24228.57664543  .00012781  00000-0  82132-3 0  9994,2 53797  53.2186 317.5123 0001703  98.8416 261.2769 15.08765146107461,6918.109,95.442,541.152,538.796,0.0
53797.0,STARLINK-4723,PAYLOAD,2024-08-15 23:22:39,15.08832109,0.0001522,53.2181,315.7292,91.206,268.9107,0.00010888,1.445e-05,0.0,0 STARLINK-4723,1 53797U 22111AA  24228.97406995  .00001445  00000-0  10888-3 0  9997,2 53797  53.2181 315.7292 0001522  91.2060 268.9107 15.08832109106737,6917.905,95.438,540.822,538.717,0.0
53797.0,STARLINK-4723,PAYLOAD,2024-08-16 10:30:21,15.08833904,0.0001508,53.2182,313.6475,91.7248,268.3917,0.00011297,1.51e-05,0.0,0 STARLINK-4723,1 53797U 22111AA  24229.43775120  .00001510  00000-0  11297-3 0  9996,2 53797  53.2182 313.6475 0001508  91.7248 268.3917 15.08833904107597,6917.899,95.438,540.807,538.721,0.0
53797.0,STARLINK-4723,PAYLOAD,2024-08-17 05:34:59,15.08829998,0.0001481,53.2177,310.0792,92.2043,267.9118,0.00010154,1.328e-05,0.0,0 STARLINK-4723,1 53797U 22111AA  24230.23263822  .00001328  00000-0  10154-3 0  9995,2 53797  53.2177 310.0792 0001481  92.2043 267.9118 15.08829998106925,6917.911,95.438,540.801,538.751,0.0
53797.0,STARLINK-4723,PAYLOAD,2024-08-18 11:47:18,15.08831141,0.0001625,53.2176,304.4326,107.1528,252.9643,0.00030285,4.534e-05,0.0,0 STARLINK-4723,1 53797U 22111AA  24231.49118887  .00004534  00000-0  30285-3 0  9993,2 53797  53.2176 304.4326 0001625 107.1528 252.9643 15.08831141107110,6917.907,95.438,540.897,538.648,0.0
53797.0,STARLINK-4723,PAYLOAD,2024-08-19 11:38:06,15.08832566,0.0001384,53.2172,299.9711,106.6463,253.4681,-2.7775e-05,-7.3e-06,0.0,0 STARLINK-4723,1 53797U 22111AA  24232.48480180 -.00000730  00000-0 -27775-4 0  9998,2 53797  53.2172 299.9711 0001384 106.6463 253.4681 15.08832566107262,6917.903,95.438,540.726,538.811,0.0
53797.0,STARLINK-4723,PAYLOAD,2024-08-19 13:13:29,15.0883471,0.0001381,53.2164,299.6722,104.6214,255.4931,-1.8782e-05,-5.87e-06,0.0,0 STARLINK-4723,1 53797U 22111AA  24232.55104024 -.00000587  00000-0 -18782-4 0  9994,2 53797  53.2164 299.6722 0001381 104.6214 255.4931 15.08834710108063,6917.897,95.438,540.717,538.806,0.0
53797.0,STARLINK-4723,PAYLOAD,2024-08-20 11:28:53,15.08841446,0.0001411,53.2164,295.5099,110.9517,249.1626,-9.4936e-05,-1.799e-05,0.0,0 STARLINK-4723,1 53797U 22111AA  24233.47840225 -.00001799  00000-0 -94936-4 0  9997,2 53797  53.2164 295.5099 0001411 110.9517 249.1626 15.08841446108206,6917.876,95.437,540.717,538.765,0.0
53797.0,STARLINK-4723,PAYLOAD,2024-08-21 11:19:41,15.08836766,0.000135,53.2162,291.049,105.3789,254.7352,0.0001072,1.418e-05,0.0,0 STARLINK-4723,1 53797U 22111AA  24234.47200233  .00001418  00000-0  10720-3 0  9991,2 53797  53.2162 291.0490 0001350 105.3789 254.7352 15.08836766108354,6917.89,95.438,540.689,538.821,0.0
53797.0,STARLINK-4723,PAYLOAD,2024-08-21 20:51:59,15.08841898,0.0001413,53.2172,289.261,84.892,275.2233,2.4553e-06,-2.49e-06,0.0,0 STARLINK-4723,1 53797U 22111AA  24234.86944377 -.00000249  00000-0  24553-5 0  9991,2 53797  53.2172 289.2610 0001413  84.8920 275.2233 15.08841898107623,6917.875,95.437,540.717,538.762,0.0
